;; ArchDisc Foundation slicer
;; layers 50, layerH 0.2, nozzle 0.4, filament 1.75
;; nozzle 200 °C, bed 60 °C
M82 ; absolute extrusion
G21 ; mm
G90 ; absolute
M140 S60
M104 S200
M190 S60
M109 S200
G28 ; home
G92 E0
G1 Z0.2 F300

;; LAYER 0 z=0.100
G1 Z0.100 F4800
G0 X0.000 Y0.000 F4800
G1 X19.800 Y0.000 E0.6586 F1800
G1 X20.000 Y0.000 E0.6652 F1800
G1 X20.000 Y19.800 E1.3238 F1800
G1 X20.000 Y20.000 E1.3304 F1800
G1 X0.200 Y20.000 E1.9890 F1800
G1 X0.000 Y20.000 E1.9956 F1800
G1 X0.000 Y0.200 E2.6542 F1800
G1 X0.000 Y0.000 E2.6608 F1800

;; LAYER 1 z=0.300
G1 Z0.300 F4800
G0 X0.000 Y0.000 F4800
G1 X19.400 Y0.000 E3.3061 F1800
G1 X20.000 Y0.000 E3.3260 F1800
G1 X20.000 Y19.400 E3.9713 F1800
G1 X20.000 Y20.000 E3.9912 F1800
G1 X0.600 Y20.000 E4.6365 F1800
G1 X0.000 Y20.000 E4.6564 F1800
G1 X0.000 Y0.600 E5.3017 F1800
G1 X0.000 Y0.000 E5.3216 F1800

;; LAYER 2 z=0.500
G1 Z0.500 F4800
G0 X0.000 Y0.000 F4800
G1 X19.000 Y0.000 E5.9536 F1800
G1 X20.000 Y0.000 E5.9868 F1800
G1 X20.000 Y19.000 E6.6188 F1800
G1 X20.000 Y20.000 E6.6520 F1800
G1 X1.000 Y20.000 E7.2840 F1800
G1 X0.000 Y20.000 E7.3172 F1800
G1 X0.000 Y1.000 E7.9492 F1800
G1 X0.000 Y0.000 E7.9824 F1800

;; LAYER 3 z=0.700
G1 Z0.700 F4800
G0 X0.000 Y0.000 F4800
G1 X18.600 Y0.000 E8.6011 F1800
G1 X20.000 Y0.000 E8.6476 F1800
G1 X20.000 Y18.600 E9.2663 F1800
G1 X20.000 Y20.000 E9.3128 F1800
G1 X1.400 Y20.000 E9.9315 F1800
G1 X0.000 Y20.000 E9.9780 F1800
G1 X0.000 Y1.400 E10.5967 F1800
G1 X0.000 Y0.000 E10.6432 F1800

;; LAYER 4 z=0.900
G1 Z0.900 F4800
G0 X0.000 Y0.000 F4800
G1 X18.200 Y0.000 E11.2486 F1800
G1 X20.000 Y0.000 E11.3084 F1800
G1 X20.000 Y18.200 E11.9138 F1800
G1 X20.000 Y20.000 E11.9736 F1800
G1 X1.800 Y20.000 E12.5790 F1800
G1 X0.000 Y20.000 E12.6389 F1800
G1 X0.000 Y1.800 E13.2442 F1800
G1 X0.000 Y0.000 E13.3041 F1800

;; LAYER 5 z=1.100
G1 Z1.100 F4800
G0 X0.000 Y0.000 F4800
G1 X17.800 Y0.000 E13.8961 F1800
G1 X20.000 Y0.000 E13.9693 F1800
G1 X20.000 Y17.800 E14.5613 F1800
G1 X20.000 Y20.000 E14.6345 F1800
G1 X2.200 Y20.000 E15.2265 F1800
G1 X0.000 Y20.000 E15.2997 F1800
G1 X0.000 Y2.200 E15.8917 F1800
G1 X0.000 Y0.000 E15.9649 F1800

;; LAYER 6 z=1.300
G1 Z1.300 F4800
G0 X0.000 Y0.000 F4800
G1 X17.400 Y0.000 E16.5436 F1800
G1 X20.000 Y0.000 E16.6301 F1800
G1 X20.000 Y17.400 E17.2088 F1800
G1 X20.000 Y20.000 E17.2953 F1800
G1 X2.600 Y20.000 E17.8740 F1800
G1 X0.000 Y20.000 E17.9605 F1800
G1 X0.000 Y2.600 E18.5392 F1800
G1 X0.000 Y0.000 E18.6257 F1800

;; LAYER 7 z=1.500
G1 Z1.500 F4800
G0 X0.000 Y0.000 F4800
G1 X17.000 Y0.000 E19.1911 F1800
G1 X20.000 Y0.000 E19.2909 F1800
G1 X20.000 Y17.000 E19.8563 F1800
G1 X20.000 Y20.000 E19.9561 F1800
G1 X3.000 Y20.000 E20.5215 F1800
G1 X0.000 Y20.000 E20.6213 F1800
G1 X0.000 Y3.000 E21.1867 F1800
G1 X0.000 Y0.000 E21.2865 F1800

;; LAYER 8 z=1.700
G1 Z1.700 F4800
G0 X0.000 Y0.000 F4800
G1 X16.600 Y0.000 E21.8386 F1800
G1 X20.000 Y0.000 E21.9517 F1800
G1 X20.000 Y16.600 E22.5038 F1800
G1 X20.000 Y20.000 E22.6169 F1800
G1 X3.400 Y20.000 E23.1690 F1800
G1 X0.000 Y20.000 E23.2821 F1800
G1 X0.000 Y3.400 E23.8342 F1800
G1 X0.000 Y0.000 E23.9473 F1800

;; LAYER 9 z=1.900
G1 Z1.900 F4800
G0 X0.000 Y0.000 F4800
G1 X16.200 Y0.000 E24.4861 F1800
G1 X20.000 Y0.000 E24.6125 F1800
G1 X20.000 Y16.200 E25.1513 F1800
G1 X20.000 Y20.000 E25.2777 F1800
G1 X3.800 Y20.000 E25.8165 F1800
G1 X0.000 Y20.000 E25.9429 F1800
G1 X0.000 Y3.800 E26.4817 F1800
G1 X0.000 Y0.000 E26.6081 F1800

;; LAYER 10 z=2.100
G1 Z2.100 F4800
G0 X0.000 Y0.000 F4800
G1 X15.800 Y0.000 E27.1336 F1800
G1 X20.000 Y0.000 E27.2733 F1800
G1 X20.000 Y15.800 E27.7988 F1800
G1 X20.000 Y20.000 E27.9385 F1800
G1 X4.200 Y20.000 E28.4640 F1800
G1 X0.000 Y20.000 E28.6037 F1800
G1 X0.000 Y4.200 E29.1292 F1800
G1 X0.000 Y0.000 E29.2689 F1800

;; LAYER 11 z=2.300
G1 Z2.300 F4800
G0 X0.000 Y0.000 F4800
G1 X15.400 Y0.000 E29.7811 F1800
G1 X20.000 Y0.000 E29.9341 F1800
G1 X20.000 Y15.400 E30.4463 F1800
G1 X20.000 Y20.000 E30.5993 F1800
G1 X4.600 Y20.000 E31.1115 F1800
G1 X0.000 Y20.000 E31.2645 F1800
G1 X0.000 Y4.600 E31.7767 F1800
G1 X0.000 Y0.000 E31.9297 F1800

;; LAYER 12 z=2.500
G1 Z2.500 F4800
G0 X0.000 Y0.000 F4800
G1 X15.000 Y0.000 E32.4286 F1800
G1 X20.000 Y0.000 E32.5949 F1800
G1 X20.000 Y15.000 E33.0938 F1800
G1 X20.000 Y20.000 E33.2601 F1800
G1 X5.000 Y20.000 E33.7590 F1800
G1 X0.000 Y20.000 E33.9253 F1800
G1 X0.000 Y5.000 E34.4242 F1800
G1 X0.000 Y0.000 E34.5905 F1800

;; LAYER 13 z=2.700
G1 Z2.700 F4800
G0 X0.000 Y0.000 F4800
G1 X14.600 Y0.000 E35.0761 F1800
G1 X20.000 Y0.000 E35.2557 F1800
G1 X20.000 Y14.600 E35.7413 F1800
G1 X20.000 Y20.000 E35.9209 F1800
G1 X5.400 Y20.000 E36.4065 F1800
G1 X0.000 Y20.000 E36.5861 F1800
G1 X0.000 Y5.400 E37.0717 F1800
G1 X0.000 Y0.000 E37.2514 F1800

;; LAYER 14 z=2.900
G1 Z2.900 F4800
G0 X0.000 Y0.000 F4800
G1 X14.200 Y0.000 E37.7236 F1800
G1 X20.000 Y0.000 E37.9166 F1800
G1 X20.000 Y14.200 E38.3888 F1800
G1 X20.000 Y20.000 E38.5818 F1800
G1 X5.800 Y20.000 E39.0541 F1800
G1 X0.000 Y20.000 E39.2470 F1800
G1 X0.000 Y5.800 E39.7193 F1800
G1 X0.000 Y0.000 E39.9122 F1800

;; LAYER 15 z=3.100
G1 Z3.100 F4800
G0 X0.000 Y0.000 F4800
G1 X13.800 Y0.000 E40.3712 F1800
G1 X20.000 Y0.000 E40.5774 F1800
G1 X20.000 Y13.800 E41.0364 F1800
G1 X20.000 Y20.000 E41.2426 F1800
G1 X6.200 Y20.000 E41.7016 F1800
G1 X0.000 Y20.000 E41.9078 F1800
G1 X0.000 Y6.200 E42.3668 F1800
G1 X0.000 Y0.000 E42.5730 F1800

;; LAYER 16 z=3.300
G1 Z3.300 F4800
G0 X0.000 Y0.000 F4800
G1 X13.400 Y0.000 E43.0187 F1800
G1 X20.000 Y0.000 E43.2382 F1800
G1 X20.000 Y13.400 E43.6839 F1800
G1 X20.000 Y20.000 E43.9034 F1800
G1 X6.600 Y20.000 E44.3491 F1800
G1 X0.000 Y20.000 E44.5686 F1800
G1 X0.000 Y6.600 E45.0143 F1800
G1 X0.000 Y0.000 E45.2338 F1800

;; LAYER 17 z=3.500
G1 Z3.500 F4800
G0 X0.000 Y0.000 F4800
G1 X13.000 Y0.000 E45.6662 F1800
G1 X20.000 Y0.000 E45.8990 F1800
G1 X20.000 Y13.000 E46.3314 F1800
G1 X20.000 Y20.000 E46.5642 F1800
G1 X7.000 Y20.000 E46.9966 F1800
G1 X0.000 Y20.000 E47.2294 F1800
G1 X0.000 Y7.000 E47.6618 F1800
G1 X0.000 Y0.000 E47.8946 F1800

;; LAYER 18 z=3.700
G1 Z3.700 F4800
G0 X0.000 Y0.000 F4800
G1 X12.600 Y0.000 E48.3137 F1800
G1 X20.000 Y0.000 E48.5598 F1800
G1 X20.000 Y12.600 E48.9789 F1800
G1 X20.000 Y20.000 E49.2250 F1800
G1 X7.400 Y20.000 E49.6441 F1800
G1 X0.000 Y20.000 E49.8902 F1800
G1 X0.000 Y7.400 E50.3093 F1800
G1 X0.000 Y0.000 E50.5554 F1800

;; LAYER 19 z=3.900
G1 Z3.900 F4800
G0 X0.000 Y0.000 F4800
G1 X12.200 Y0.000 E50.9612 F1800
G1 X20.000 Y0.000 E51.2206 F1800
G1 X20.000 Y12.200 E51.6264 F1800
G1 X20.000 Y20.000 E51.8858 F1800
G1 X7.800 Y20.000 E52.2916 F1800
G1 X0.000 Y20.000 E52.5510 F1800
G1 X0.000 Y7.800 E52.9568 F1800
G1 X0.000 Y0.000 E53.2162 F1800

;; LAYER 20 z=4.100
G1 Z4.100 F4800
G0 X0.000 Y0.000 F4800
G1 X11.800 Y0.000 E53.6087 F1800
G1 X20.000 Y0.000 E53.8814 F1800
G1 X20.000 Y11.800 E54.2739 F1800
G1 X20.000 Y20.000 E54.5466 F1800
G1 X8.200 Y20.000 E54.9391 F1800
G1 X0.000 Y20.000 E55.2118 F1800
G1 X0.000 Y8.200 E55.6043 F1800
G1 X0.000 Y0.000 E55.8770 F1800

;; LAYER 21 z=4.300
G1 Z4.300 F4800
G0 X0.000 Y0.000 F4800
G1 X11.400 Y0.000 E56.2562 F1800
G1 X20.000 Y0.000 E56.5422 F1800
G1 X20.000 Y11.400 E56.9214 F1800
G1 X20.000 Y20.000 E57.2074 F1800
G1 X8.600 Y20.000 E57.5866 F1800
G1 X0.000 Y20.000 E57.8726 F1800
G1 X0.000 Y8.600 E58.2518 F1800
G1 X0.000 Y0.000 E58.5378 F1800

;; LAYER 22 z=4.500
G1 Z4.500 F4800
G0 X0.000 Y0.000 F4800
G1 X11.000 Y0.000 E58.9037 F1800
G1 X20.000 Y0.000 E59.2030 F1800
G1 X20.000 Y11.000 E59.5689 F1800
G1 X20.000 Y20.000 E59.8682 F1800
G1 X9.000 Y20.000 E60.2341 F1800
G1 X0.000 Y20.000 E60.5334 F1800
G1 X0.000 Y9.000 E60.8993 F1800
G1 X0.000 Y0.000 E61.1986 F1800

;; LAYER 23 z=4.700
G1 Z4.700 F4800
G0 X0.000 Y0.000 F4800
G1 X10.600 Y0.000 E61.5512 F1800
G1 X20.000 Y0.000 E61.8639 F1800
G1 X20.000 Y10.600 E62.2164 F1800
G1 X20.000 Y20.000 E62.5291 F1800
G1 X9.400 Y20.000 E62.8816 F1800
G1 X0.000 Y20.000 E63.1943 F1800
G1 X0.000 Y9.400 E63.5468 F1800
G1 X0.000 Y0.000 E63.8595 F1800

;; LAYER 24 z=4.900
G1 Z4.900 F4800
G0 X0.000 Y0.000 F4800
G1 X10.200 Y0.000 E64.1987 F1800
G1 X20.000 Y0.000 E64.5247 F1800
G1 X20.000 Y10.200 E64.8639 F1800
G1 X20.000 Y20.000 E65.1899 F1800
G1 X9.800 Y20.000 E65.5291 F1800
G1 X0.000 Y20.000 E65.8551 F1800
G1 X0.000 Y9.800 E66.1943 F1800
G1 X0.000 Y0.000 E66.5203 F1800

;; LAYER 25 z=5.100
G1 Z5.100 F4800
G0 X0.000 Y0.000 F4800
G1 X9.800 Y0.000 E66.8462 F1800
G1 X20.000 Y0.000 E67.1855 F1800
G1 X20.000 Y9.800 E67.5114 F1800
G1 X20.000 Y20.000 E67.8507 F1800
G1 X10.200 Y20.000 E68.1766 F1800
G1 X0.000 Y20.000 E68.5159 F1800
G1 X0.000 Y10.200 E68.8418 F1800
G1 X0.000 Y0.000 E69.1811 F1800

;; LAYER 26 z=5.300
G1 Z5.300 F4800
G0 X0.000 Y0.000 F4800
G1 X9.400 Y0.000 E69.4937 F1800
G1 X20.000 Y0.000 E69.8463 F1800
G1 X20.000 Y9.400 E70.1589 F1800
G1 X20.000 Y20.000 E70.5115 F1800
G1 X10.600 Y20.000 E70.8241 F1800
G1 X0.000 Y20.000 E71.1767 F1800
G1 X0.000 Y10.600 E71.4893 F1800
G1 X0.000 Y0.000 E71.8419 F1800

;; LAYER 27 z=5.500
G1 Z5.500 F4800
G0 X0.000 Y0.000 F4800
G1 X9.000 Y0.000 E72.1412 F1800
G1 X20.000 Y0.000 E72.5071 F1800
G1 X20.000 Y9.000 E72.8064 F1800
G1 X20.000 Y20.000 E73.1723 F1800
G1 X11.000 Y20.000 E73.4716 F1800
G1 X0.000 Y20.000 E73.8375 F1800
G1 X0.000 Y11.000 E74.1368 F1800
G1 X0.000 Y0.000 E74.5027 F1800

;; LAYER 28 z=5.700
G1 Z5.700 F4800
G0 X0.000 Y0.000 F4800
G1 X8.600 Y0.000 E74.7887 F1800
G1 X20.000 Y0.000 E75.1679 F1800
G1 X20.000 Y8.600 E75.4539 F1800
G1 X20.000 Y20.000 E75.8331 F1800
G1 X11.400 Y20.000 E76.1191 F1800
G1 X0.000 Y20.000 E76.4983 F1800
G1 X0.000 Y11.400 E76.7843 F1800
G1 X0.000 Y0.000 E77.1635 F1800

;; LAYER 29 z=5.900
G1 Z5.900 F4800
G0 X0.000 Y0.000 F4800
G1 X8.200 Y0.000 E77.4362 F1800
G1 X20.000 Y0.000 E77.8287 F1800
G1 X20.000 Y8.200 E78.1014 F1800
G1 X20.000 Y20.000 E78.4939 F1800
G1 X11.800 Y20.000 E78.7667 F1800
G1 X0.000 Y20.000 E79.1591 F1800
G1 X0.000 Y11.800 E79.4319 F1800
G1 X0.000 Y0.000 E79.8243 F1800

;; LAYER 30 z=6.100
G1 Z6.100 F4800
G0 X0.000 Y0.000 F4800
G1 X7.800 Y0.000 E80.0838 F1800
G1 X20.000 Y0.000 E80.4895 F1800
G1 X20.000 Y7.800 E80.7490 F1800
G1 X20.000 Y20.000 E81.1547 F1800
G1 X12.200 Y20.000 E81.4142 F1800
G1 X0.000 Y20.000 E81.8199 F1800
G1 X0.000 Y12.200 E82.0794 F1800
G1 X0.000 Y0.000 E82.4851 F1800

;; LAYER 31 z=6.300
G1 Z6.300 F4800
G0 X0.000 Y0.000 F4800
G1 X7.400 Y0.000 E82.7313 F1800
G1 X20.000 Y0.000 E83.1503 F1800
G1 X20.000 Y7.400 E83.3965 F1800
G1 X20.000 Y20.000 E83.8155 F1800
G1 X12.600 Y20.000 E84.0617 F1800
G1 X0.000 Y20.000 E84.4807 F1800
G1 X0.000 Y12.600 E84.7269 F1800
G1 X0.000 Y0.000 E85.1459 F1800

;; LAYER 32 z=6.500
G1 Z6.500 F4800
G0 X0.000 Y0.000 F4800
G1 X7.000 Y0.000 E85.3788 F1800
G1 X20.000 Y0.000 E85.8111 F1800
G1 X20.000 Y7.000 E86.0440 F1800
G1 X20.000 Y20.000 E86.4764 F1800
G1 X13.000 Y20.000 E86.7092 F1800
G1 X0.000 Y20.000 E87.1416 F1800
G1 X0.000 Y13.000 E87.3744 F1800
G1 X0.000 Y0.000 E87.8068 F1800

;; LAYER 33 z=6.700
G1 Z6.700 F4800
G0 X0.000 Y0.000 F4800
G1 X6.600 Y0.000 E88.0263 F1800
G1 X20.000 Y0.000 E88.4720 F1800
G1 X20.000 Y6.600 E88.6915 F1800
G1 X20.000 Y20.000 E89.1372 F1800
G1 X13.400 Y20.000 E89.3567 F1800
G1 X0.000 Y20.000 E89.8024 F1800
G1 X0.000 Y13.400 E90.0219 F1800
G1 X0.000 Y0.000 E90.4676 F1800

;; LAYER 34 z=6.900
G1 Z6.900 F4800
G0 X0.000 Y0.000 F4800
G1 X6.200 Y0.000 E90.6738 F1800
G1 X20.000 Y0.000 E91.1328 F1800
G1 X20.000 Y6.200 E91.3390 F1800
G1 X20.000 Y20.000 E91.7980 F1800
G1 X13.800 Y20.000 E92.0042 F1800
G1 X0.000 Y20.000 E92.4632 F1800
G1 X0.000 Y13.800 E92.6694 F1800
G1 X0.000 Y0.000 E93.1284 F1800

;; LAYER 35 z=7.100
G1 Z7.100 F4800
G0 X0.000 Y0.000 F4800
G1 X5.800 Y0.000 E93.3213 F1800
G1 X20.000 Y0.000 E93.7936 F1800
G1 X20.000 Y5.800 E93.9865 F1800
G1 X20.000 Y20.000 E94.4588 F1800
G1 X14.200 Y20.000 E94.6517 F1800
G1 X0.000 Y20.000 E95.1240 F1800
G1 X0.000 Y14.200 E95.3169 F1800
G1 X0.000 Y0.000 E95.7892 F1800

;; LAYER 36 z=7.300
G1 Z7.300 F4800
G0 X0.000 Y0.000 F4800
G1 X5.400 Y0.000 E95.9688 F1800
G1 X20.000 Y0.000 E96.4544 F1800
G1 X20.000 Y5.400 E96.6340 F1800
G1 X20.000 Y20.000 E97.1196 F1800
G1 X14.600 Y20.000 E97.2992 F1800
G1 X0.000 Y20.000 E97.7848 F1800
G1 X0.000 Y14.600 E97.9644 F1800
G1 X0.000 Y0.000 E98.4500 F1800

;; LAYER 37 z=7.500
G1 Z7.500 F4800
G0 X0.000 Y0.000 F4800
G1 X5.000 Y0.000 E98.6163 F1800
G1 X20.000 Y0.000 E99.1152 F1800
G1 X20.000 Y5.000 E99.2815 F1800
G1 X20.000 Y20.000 E99.7804 F1800
G1 X15.000 Y20.000 E99.9467 F1800
G1 X0.000 Y20.000 E100.4456 F1800
G1 X0.000 Y15.000 E100.6119 F1800
G1 X0.000 Y0.000 E101.1108 F1800

;; LAYER 38 z=7.700
G1 Z7.700 F4800
G0 X0.000 Y0.000 F4800
G1 X4.600 Y0.000 E101.2638 F1800
G1 X20.000 Y0.000 E101.7760 F1800
G1 X20.000 Y4.600 E101.9290 F1800
G1 X20.000 Y20.000 E102.4412 F1800
G1 X15.400 Y20.000 E102.5942 F1800
G1 X0.000 Y20.000 E103.1064 F1800
G1 X0.000 Y15.400 E103.2594 F1800
G1 X0.000 Y0.000 E103.7716 F1800

;; LAYER 39 z=7.900
G1 Z7.900 F4800
G0 X0.000 Y0.000 F4800
G1 X4.200 Y0.000 E103.9113 F1800
G1 X20.000 Y0.000 E104.4368 F1800
G1 X20.000 Y4.200 E104.5765 F1800
G1 X20.000 Y20.000 E105.1020 F1800
G1 X15.800 Y20.000 E105.2417 F1800
G1 X0.000 Y20.000 E105.7672 F1800
G1 X0.000 Y15.800 E105.9069 F1800
G1 X0.000 Y0.000 E106.4324 F1800

;; LAYER 40 z=8.100
G1 Z8.100 F4800
G0 X0.000 Y0.000 F4800
G1 X3.800 Y0.000 E106.5588 F1800
G1 X20.000 Y0.000 E107.0976 F1800
G1 X20.000 Y3.800 E107.2240 F1800
G1 X20.000 Y20.000 E107.7628 F1800
G1 X16.200 Y20.000 E107.8892 F1800
G1 X0.000 Y20.000 E108.4280 F1800
G1 X0.000 Y16.200 E108.5544 F1800
G1 X0.000 Y0.000 E109.0932 F1800

;; LAYER 41 z=8.300
G1 Z8.300 F4800
G0 X0.000 Y0.000 F4800
G1 X3.400 Y0.000 E109.2063 F1800
G1 X20.000 Y0.000 E109.7584 F1800
G1 X20.000 Y3.400 E109.8715 F1800
G1 X20.000 Y20.000 E110.4236 F1800
G1 X16.600 Y20.000 E110.5367 F1800
G1 X0.000 Y20.000 E111.0889 F1800
G1 X0.000 Y16.600 E111.2019 F1800
G1 X0.000 Y0.000 E111.7541 F1800

;; LAYER 42 z=8.500
G1 Z8.500 F4800
G0 X0.000 Y0.000 F4800
G1 X3.000 Y0.000 E111.8538 F1800
G1 X20.000 Y0.000 E112.4193 F1800
G1 X20.000 Y3.000 E112.5190 F1800
G1 X20.000 Y20.000 E113.0845 F1800
G1 X17.000 Y20.000 E113.1842 F1800
G1 X0.000 Y20.000 E113.7497 F1800
G1 X0.000 Y17.000 E113.8494 F1800
G1 X0.000 Y0.000 E114.4149 F1800

;; LAYER 43 z=8.700
G1 Z8.700 F4800
G0 X0.000 Y0.000 F4800
G1 X2.600 Y0.000 E114.5013 F1800
G1 X20.000 Y0.000 E115.0801 F1800
G1 X20.000 Y2.600 E115.1665 F1800
G1 X20.000 Y20.000 E115.7453 F1800
G1 X17.400 Y20.000 E115.8317 F1800
G1 X0.000 Y20.000 E116.4105 F1800
G1 X0.000 Y17.400 E116.4969 F1800
G1 X0.000 Y0.000 E117.0757 F1800

;; LAYER 44 z=8.900
G1 Z8.900 F4800
G0 X0.000 Y0.000 F4800
G1 X2.200 Y0.000 E117.1488 F1800
G1 X20.000 Y0.000 E117.7409 F1800
G1 X20.000 Y2.200 E117.8141 F1800
G1 X20.000 Y20.000 E118.4061 F1800
G1 X17.800 Y20.000 E118.4793 F1800
G1 X0.000 Y20.000 E119.0713 F1800
G1 X0.000 Y17.800 E119.1445 F1800
G1 X0.000 Y0.000 E119.7365 F1800

;; LAYER 45 z=9.100
G1 Z9.100 F4800
G0 X0.000 Y0.000 F4800
G1 X1.800 Y0.000 E119.7964 F1800
G1 X20.000 Y0.000 E120.4017 F1800
G1 X20.000 Y1.800 E120.4616 F1800
G1 X20.000 Y20.000 E121.0669 F1800
G1 X18.200 Y20.000 E121.1268 F1800
G1 X0.000 Y20.000 E121.7321 F1800
G1 X0.000 Y18.200 E121.7920 F1800
G1 X0.000 Y0.000 E122.3973 F1800

;; LAYER 46 z=9.300
G1 Z9.300 F4800
G0 X0.000 Y0.000 F4800
G1 X1.400 Y0.000 E122.4439 F1800
G1 X20.000 Y0.000 E123.0625 F1800
G1 X20.000 Y1.400 E123.1091 F1800
G1 X20.000 Y20.000 E123.7277 F1800
G1 X18.600 Y20.000 E123.7743 F1800
G1 X0.000 Y20.000 E124.3929 F1800
G1 X0.000 Y18.600 E124.4395 F1800
G1 X0.000 Y0.000 E125.0581 F1800

;; LAYER 47 z=9.500
G1 Z9.500 F4800
G0 X0.000 Y0.000 F4800
G1 X1.000 Y0.000 E125.0914 F1800
G1 X20.000 Y0.000 E125.7233 F1800
G1 X20.000 Y1.000 E125.7566 F1800
G1 X20.000 Y20.000 E126.3885 F1800
G1 X19.000 Y20.000 E126.4218 F1800
G1 X0.000 Y20.000 E127.0537 F1800
G1 X0.000 Y19.000 E127.0870 F1800
G1 X0.000 Y0.000 E127.7189 F1800

;; LAYER 48 z=9.700
G1 Z9.700 F4800
G0 X0.000 Y0.000 F4800
G1 X0.600 Y0.000 E127.7389 F1800
G1 X20.000 Y0.000 E128.3841 F1800
G1 X20.000 Y0.600 E128.4041 F1800
G1 X20.000 Y20.000 E129.0493 F1800
G1 X19.400 Y20.000 E129.0693 F1800
G1 X0.000 Y20.000 E129.7145 F1800
G1 X0.000 Y19.400 E129.7345 F1800
G1 X0.000 Y0.000 E130.3797 F1800

;; LAYER 49 z=9.900
G1 Z9.900 F4800
G0 X0.000 Y0.000 F4800
G1 X0.200 Y0.000 E130.3864 F1800
G1 X20.000 Y0.000 E131.0449 F1800
G1 X20.000 Y0.200 E131.0516 F1800
G1 X20.000 Y20.000 E131.7101 F1800
G1 X19.800 Y20.000 E131.7168 F1800
G1 X0.000 Y20.000 E132.3753 F1800
G1 X0.000 Y19.800 E132.3820 F1800
G1 X0.000 Y0.000 E133.0405 F1800

;; END
G1 Z14.900 F4800
M104 S0
M140 S0
G28 X0