%
( ArchDisc Foundation CAM — Phone-stand bracket )
( generated 2026-05-10T08:53:36 )
G21 ( mm )
G17 ( XY plane )
G90 ( absolute )
G94 ( feed per min )
G54 ( WCS 1 )
G40 ( cancel cutter comp )
G49 ( cancel tool length offset )
M5  ( spindle off )

( --- DRILL 4 holes, Ø3.97 HSS drill --- )
T1 M6 ( load tool 1: Ø3.97 HSS drill )
S1500 M3
G0 Z17.00
G0 X8.000 Y8.000
G83 X8.000 Y8.000 Z-20.941 R2.00 Q1.98 F100
G0 X72.000 Y8.000
G83 X72.000 Y8.000 Z-20.941 R2.00 Q1.98 F100
G0 X72.000 Y52.000
G83 X72.000 Y52.000 Z-20.941 R2.00 Q1.98 F100
G0 X8.000 Y52.000
G83 X8.000 Y52.000 Z-20.941 R2.00 Q1.98 F100
G80
M5

( --- CONTOUR mill outer profile, 5 pts, 11 passes, Ø6 carbide end-mill --- )
T2 M6 ( load tool 2: Ø6 carbide end-mill )
S3000 M3
G0 Z17.00
G0 X0.000 Y0.000
( --- pass 1, z = -2.00 mm --- )
G1 Z-2.000 F150
G1 X80.000 Y0.000 F600
G1 X80.000 Y105.332 F600
G1 X0.000 Y105.332 F600
G1 X0.000 Y0.000 F600
G1 X0.000 Y0.000 F600
( --- pass 2, z = -4.00 mm --- )
G1 Z-4.000 F150
G1 X80.000 Y0.000 F600
G1 X80.000 Y105.332 F600
G1 X0.000 Y105.332 F600
G1 X0.000 Y0.000 F600
G1 X0.000 Y0.000 F600
( --- pass 3, z = -6.00 mm --- )
G1 Z-6.000 F150
G1 X80.000 Y0.000 F600
G1 X80.000 Y105.332 F600
G1 X0.000 Y105.332 F600
G1 X0.000 Y0.000 F600
G1 X0.000 Y0.000 F600
( --- pass 4, z = -8.00 mm --- )
G1 Z-8.000 F150
G1 X80.000 Y0.000 F600
G1 X80.000 Y105.332 F600
G1 X0.000 Y105.332 F600
G1 X0.000 Y0.000 F600
G1 X0.000 Y0.000 F600
( --- pass 5, z = -10.00 mm --- )
G1 Z-10.000 F150
G1 X80.000 Y0.000 F600
G1 X80.000 Y105.332 F600
G1 X0.000 Y105.332 F600
G1 X0.000 Y0.000 F600
G1 X0.000 Y0.000 F600
( --- pass 6, z = -12.00 mm --- )
G1 Z-12.000 F150
G1 X80.000 Y0.000 F600
G1 X80.000 Y105.332 F600
G1 X0.000 Y105.332 F600
G1 X0.000 Y0.000 F600
G1 X0.000 Y0.000 F600
( --- pass 7, z = -14.00 mm --- )
G1 Z-14.000 F150
G1 X80.000 Y0.000 F600
G1 X80.000 Y105.332 F600
G1 X0.000 Y105.332 F600
G1 X0.000 Y0.000 F600
G1 X0.000 Y0.000 F600
( --- pass 8, z = -16.00 mm --- )
G1 Z-16.000 F150
G1 X80.000 Y0.000 F600
G1 X80.000 Y105.332 F600
G1 X0.000 Y105.332 F600
G1 X0.000 Y0.000 F600
G1 X0.000 Y0.000 F600
( --- pass 9, z = -18.00 mm --- )
G1 Z-18.000 F150
G1 X80.000 Y0.000 F600
G1 X80.000 Y105.332 F600
G1 X0.000 Y105.332 F600
G1 X0.000 Y0.000 F600
G1 X0.000 Y0.000 F600
( --- pass 10, z = -20.00 mm --- )
G1 Z-20.000 F150
G1 X80.000 Y0.000 F600
G1 X80.000 Y105.332 F600
G1 X0.000 Y105.332 F600
G1 X0.000 Y0.000 F600
G1 X0.000 Y0.000 F600
( --- pass 11, z = -20.94 mm --- )
G1 Z-20.941 F150
G1 X80.000 Y0.000 F600
G1 X80.000 Y105.332 F600
G1 X0.000 Y105.332 F600
G1 X0.000 Y0.000 F600
G1 X0.000 Y0.000 F600
G0 Z17.00
M5

G0 Z25 ( safe retract )
M5
M30 ( program end )
%